{
  "type": "FeatureCollection",
  "features": [
    {
      "type": "Feature",
      "properties": {
        "norad_id": 30103,
        "name": "FENGYUN 1C DEB",
        "group": "fengyun-1c-debris",
        "lat": 27.369555234611905,
        "lon": 149.0114335844674,
        "alt_km": 764.9520737947732,
        "timestamp": "2025-12-08T21:31:04.941637+00:00",
        "meta_object_name": "FENGYUN 1C DEB",
        "meta_object_id": "1999-025RG",
        "meta_epoch": "2025-12-08T12:57:59.411808",
        "meta_mean_motion": 14.24845547,
        "meta_eccentricity": 0.00640087,
        "meta_inclination": 99.2445,
        "meta_ra_of_asc_node": 323.8,
        "meta_arg_of_pericenter": 131.738,
        "meta_mean_anomaly": 353.459,
        "meta_ephemeris_type": 0,
        "meta_classification_type": "U",
        "meta_norad_cat_id": 30103,
        "meta_element_set_no": 999,
        "meta_rev_at_epoch": 97859,
        "meta_bstar": 0.00075951531,
        "meta_mean_motion_dot": 1.763e-05,
        "meta_mean_motion_ddot": 0,
        "tle_line1": "1 30103U 99025RG  25342.54027097  .00001763  00000+0  75952-3 0  9999",
        "tle_line2": "2 30103  99.2445 323.8000 0064008 131.7380 353.4590 14.24845547978590"
      },
      "geometry": {
        "type": "Point",
        "coordinates": [
          149.0114335844674,
          27.369555234611905
        ]
      }
    },
    {
      "type": "Feature",
      "properties": {
        "norad_id": 30104,
        "name": "FENGYUN 1C DEB",
        "group": "fengyun-1c-debris",
        "lat": -12.749970831882715,
        "lon": -177.95398831432283,
        "alt_km": 846.1831440114356,
        "timestamp": "2025-12-08T21:31:04.941648+00:00",
        "meta_object_name": "FENGYUN 1C DEB",
        "meta_object_id": "1999-025RH",
        "meta_epoch": "2025-12-08T13:26:45.098880",
        "meta_mean_motion": 14.25646707,
        "meta_eccentricity": 0.00739028,
        "meta_inclination": 98.3595,
        "meta_ra_of_asc_node": 179.8186,
        "meta_arg_of_pericenter": 120.386,
        "meta_mean_anomaly": 302.2474,
        "meta_ephemeris_type": 0,
        "meta_classification_type": "U",
        "meta_norad_cat_id": 30104,
        "meta_element_set_no": 999,
        "meta_rev_at_epoch": 97833,
        "meta_bstar": 0.0011674037,
        "meta_mean_motion_dot": 2.807e-05,
        "meta_mean_motion_ddot": 0,
        "tle_line1": "1 30104U 99025RH  25342.56024420  .00002807  00000+0  11674-2 0  9999",
        "tle_line2": "2 30104  98.3595 179.8186 0073902 120.3860 302.2474 14.25646707978334"
      },
      "geometry": {
        "type": "Point",
        "coordinates": [
          -177.95398831432283,
          -12.749970831882715
        ]
      }
    },
    {
      "type": "Feature",
      "properties": {
        "norad_id": 30105,
        "name": "FENGYUN 1C DEB",
        "group": "fengyun-1c-debris",
        "lat": 21.947164309054955,
        "lon": 152.53476752333628,
        "alt_km": 774.8340353609101,
        "timestamp": "2025-12-08T21:31:04.941658+00:00",
        "meta_object_name": "FENGYUN 1C DEB",
        "meta_object_id": "1999-025RJ",
        "meta_epoch": "2025-12-08T10:39:46.198944",
        "meta_mean_motion": 14.21388007,
        "meta_eccentricity": 0.01998281,
        "meta_inclination": 98.5934,
        "meta_ra_of_asc_node": 328.6009,
        "meta_arg_of_pericenter": 86.3507,
        "meta_mean_anomaly": 276.0497,
        "meta_ephemeris_type": 0,
        "meta_classification_type": "U",
        "meta_norad_cat_id": 30105,
        "meta_element_set_no": 999,
        "meta_rev_at_epoch": 97701,
        "meta_bstar": 0.000541237,
        "meta_mean_motion_dot": 1.404e-05,
        "meta_mean_motion_ddot": 0,
        "tle_line1": "1 30105U 99025RJ  25342.44428471  .00001404  00000+0  54124-3 0  9991",
        "tle_line2": "2 30105  98.5934 328.6009 0199828  86.3507 276.0497 14.21388007977016"
      },
      "geometry": {
        "type": "Point",
        "coordinates": [
          152.53476752333628,
          21.947164309054955
        ]
      }
    },
    {
      "type": "Feature",
      "properties": {
        "norad_id": 30106,
        "name": "FENGYUN 1C DEB",
        "group": "fengyun-1c-debris",
        "lat": -18.58547235369936,
        "lon": -107.18994136896417,
        "alt_km": 640.8891226321348,
        "timestamp": "2025-12-08T21:31:04.941668+00:00",
        "meta_object_name": "FENGYUN 1C DEB",
        "meta_object_id": "1999-025RK",
        "meta_epoch": "2025-12-08T07:34:40.162368",
        "meta_mean_motion": 14.84620549,
        "meta_eccentricity": 0.00473554,
        "meta_inclination": 98.9237,
        "meta_ra_of_asc_node": 249.1319,
        "meta_arg_of_pericenter": 213.0581,
        "meta_mean_anomaly": 265.2212,
        "meta_ephemeris_type": 0,
        "meta_classification_type": "U",
        "meta_norad_cat_id": 30106,
        "meta_element_set_no": 999,
        "meta_rev_at_epoch": 98479,
        "meta_bstar": 0.0053217997,
        "meta_mean_motion_dot": 0.000461,
        "meta_mean_motion_ddot": 0,
        "tle_line1": "1 30106U 99025RK  25342.31574262  .00046100  00000+0  53218-2 0  9992",
        "tle_line2": "2 30106  98.9237 249.1319 0047355 213.0581 265.2212 14.84620549984793"
      },
      "geometry": {
        "type": "Point",
        "coordinates": [
          -107.18994136896417,
          -18.58547235369936
        ]
      }
    },
    {
      "type": "Feature",
      "properties": {
        "norad_id": 30107,
        "name": "FENGYUN 1C DEB",
        "group": "fengyun-1c-debris",
        "lat": 20.41724928017023,
        "lon": -136.8251931785538,
        "alt_km": 898.9495915321268,
        "timestamp": "2025-12-08T21:31:04.941678+00:00",
        "meta_object_name": "FENGYUN 1C DEB",
        "meta_object_id": "1999-025RL",
        "meta_epoch": "2025-12-07T20:59:14.030016",
        "meta_mean_motion": 14.14417841,
        "meta_eccentricity": 0.01262495,
        "meta_inclination": 98.8476,
        "meta_ra_of_asc_node": 38.8384,
        "meta_arg_of_pericenter": 289.5841,
        "meta_mean_anomaly": 69.1738,
        "meta_ephemeris_type": 0,
        "meta_classification_type": "U",
        "meta_norad_cat_id": 30107,
        "meta_element_set_no": 999,
        "meta_rev_at_epoch": 97492,
        "meta_bstar": 0.00016337934,
        "meta_mean_motion_dot": 2.92e-06,
        "meta_mean_motion_ddot": 0,
        "tle_line1": "1 30107U 99025RL  25341.87446794  .00000292  00000+0  16338-3 0  9996",
        "tle_line2": "2 30107  98.8476  38.8384 0126249 289.5841  69.1738 14.14417841974920"
      },
      "geometry": {
        "type": "Point",
        "coordinates": [
          -136.8251931785538,
          20.41724928017023
        ]
      }
    },
    {
      "type": "Feature",
      "properties": {
        "norad_id": 30108,
        "name": "FENGYUN 1C DEB",
        "group": "fengyun-1c-debris",
        "lat": 25.179368033687297,
        "lon": -35.26155360563316,
        "alt_km": 692.6238271917427,
        "timestamp": "2025-12-08T21:31:04.941688+00:00",
        "meta_object_name": "FENGYUN 1C DEB",
        "meta_object_id": "1999-025RM",
        "meta_epoch": "2025-12-08T10:15:14.680800",
        "meta_mean_motion": 14.17160471,
        "meta_eccentricity": 0.019783,
        "meta_inclination": 98.66,
        "meta_ra_of_asc_node": 328.3897,
        "meta_arg_of_pericenter": 34.5337,
        "meta_mean_anomaly": 118.2762,
        "meta_ephemeris_type": 0,
        "meta_classification_type": "U",
        "meta_norad_cat_id": 30108,
        "meta_element_set_no": 999,
        "meta_rev_at_epoch": 97537,
        "meta_bstar": 0.00063785762,
        "meta_mean_motion_dot": 1.514e-05,
        "meta_mean_motion_ddot": 0,
        "tle_line1": "1 30108U 99025RM  25342.42725325  .00001514  00000+0  63786-3 0  9996",
        "tle_line2": "2 30108  98.6600 328.3897 0197830  34.5337 118.2762 14.17160471975376"
      },
      "geometry": {
        "type": "Point",
        "coordinates": [
          -35.26155360563316,
          25.179368033687297
        ]
      }
    },
    {
      "type": "Feature",
      "properties": {
        "norad_id": 30109,
        "name": "FENGYUN 1C DEB",
        "group": "fengyun-1c-debris",
        "lat": 49.316311835690115,
        "lon": 166.59626203949793,
        "alt_km": 875.9621942042695,
        "timestamp": "2025-12-08T21:31:04.941698+00:00",
        "meta_object_name": "FENGYUN 1C DEB",
        "meta_object_id": "1999-025RN",
        "meta_epoch": "2025-12-08T13:00:18.858816",
        "meta_mean_motion": 14.17539252,
        "meta_eccentricity": 0.0167195,
        "meta_inclination": 98.5077,
        "meta_ra_of_asc_node": 336.2288,
        "meta_arg_of_pericenter": 244.5973,
        "meta_mean_anomaly": 237.9707,
        "meta_ephemeris_type": 0,
        "meta_classification_type": "U",
        "meta_norad_cat_id": 30109,
        "meta_element_set_no": 999,
        "meta_rev_at_epoch": 97492,
        "meta_bstar": 0.0007134943,
        "meta_mean_motion_dot": 1.619e-05,
        "meta_mean_motion_ddot": 0,
        "tle_line1": "1 30109U 99025RN  25342.54188494  .00001619  00000+0  71349-3 0  9990",
        "tle_line2": "2 30109  98.5077 336.2288 0167195 244.5973 237.9707 14.17539252974921"
      },
      "geometry": {
        "type": "Point",
        "coordinates": [
          166.59626203949793,
          49.316311835690115
        ]
      }
    }
  ]
}